{"type": "FeatureCollection", "features": [{"type": "Feature", "properties": {"norad_id": 22490, "name": "SCD 1", "group": "resource", "lat": 23.2882085520277, "lon": -62.782709800477335, "alt_km": 705.2048688039158, "timestamp": "2025-12-20T16:47:35.947718+00:00", "meta": {"OBJECT_NAME": "SCD 1", "OBJECT_ID": "1993-009B", "EPOCH": "2025-12-20T02:06:40.199328", "MEAN_MOTION": 14.46003712, "ECCENTRICITY": 0.00420998, "INCLINATION": 24.9683, "RA_OF_ASC_NODE": 233.3258, "ARG_OF_PERICENTER": 42.7923, "MEAN_ANOMALY": 75.5892, "EPHEMERIS_TYPE": 0, "CLASSIFICATION_TYPE": "U", "NORAD_CAT_ID": 22490, "ELEMENT_SET_NO": 999, "REV_AT_EPOCH": 73516, "BSTAR": 6.2477864e-05, "MEAN_MOTION_DOT": 4.13e-06, "MEAN_MOTION_DDOT": 0}, "tle": {"line1": "1 22490U 93009B   25354.08796527  .00000413  00000+0  62478-4 0  9999", "line2": "2 22490  24.9683 233.3258 0042099  42.7923  75.5892 14.46003712735164"}}, "geometry": {"type": "Point", "coordinates": [-62.782709800477335, 23.2882085520277]}}, {"type": "Feature", "properties": {"norad_id": 25397, "name": "TECHSAT 1B (GO-32)", "group": "resource", "lat": -74.20004791313507, "lon": 12.124981334191979, "alt_km": 818.5418214275769, "timestamp": "2025-12-20T16:47:35.947745+00:00", "meta": {"OBJECT_NAME": "TECHSAT 1B (GO-32)", "OBJECT_ID": "1998-043D", "EPOCH": "2025-12-20T10:24:38.007072", "MEAN_MOTION": 14.24379087, "ECCENTRICITY": 0.0001817, "INCLINATION": 98.9927, "RA_OF_ASC_NODE": 337.8236, "ARG_OF_PERICENTER": 45.1829, "MEAN_ANOMALY": 314.9496, "EPHEMERIS_TYPE": 0, "CLASSIFICATION_TYPE": "U", "NORAD_CAT_ID": 25397, "ELEMENT_SET_NO": 999, "REV_AT_EPOCH": 42588, "BSTAR": 3.8955e-05, "MEAN_MOTION_DOT": 4.3e-07, "MEAN_MOTION_DDOT": 0}, "tle": {"line1": "1 25397U 98043D   25354.43377323  .00000043  00000+0  38955-4 0  9991", "line2": "2 25397  98.9927 337.8236 0001817  45.1829 314.9496 14.24379087425888"}}, "geometry": {"type": "Point", "coordinates": [12.124981334191979, -74.20004791313507]}}, {"type": "Feature", "properties": {"norad_id": 25504, "name": "SCD 2", "group": "resource", "lat": 24.878158027763195, "lon": 177.2882380517396, "alt_km": 726.7409800604337, "timestamp": "2025-12-20T16:47:35.947761+00:00", "meta": {"OBJECT_NAME": "SCD 2", "OBJECT_ID": "1998-060A", "EPOCH": "2025-12-20T00:34:20.177760", "MEAN_MOTION": 14.45427003, "ECCENTRICITY": 0.00169593, "INCLINATION": 24.9945, "RA_OF_ASC_NODE": 96.9807, "ARG_OF_PERICENTER": 30.6376, "MEAN_ANOMALY": 130.1203, "EPHEMERIS_TYPE": 0, "CLASSIFICATION_TYPE": "U", "NORAD_CAT_ID": 25504, "ELEMENT_SET_NO": 999, "REV_AT_EPOCH": 43437, "BSTAR": 4.6916456e-05, "MEAN_MOTION_DOT": 3.5e-06, "MEAN_MOTION_DDOT": 0}, "tle": {"line1": "1 25504U 98060A   25354.02384465  .00000350  00000+0  46916-4 0  9997", "line2": "2 25504  24.9945  96.9807 0016959  30.6376 130.1203 14.45427003434376"}}, "geometry": {"type": "Point", "coordinates": [177.2882380517396, 24.878158027763195]}}, {"type": "Feature", "properties": {"norad_id": 25757, "name": "DLR-TUBSAT", "group": "resource", "lat": -41.55286618232828, "lon": 151.69848667811857, "alt_km": 718.5348456103611, "timestamp": "2025-12-20T16:47:35.947774+00:00", "meta": {"OBJECT_NAME": "DLR-TUBSAT", "OBJECT_ID": "1999-029B", "EPOCH": "2025-12-17T13:22:10.787520", "MEAN_MOTION": 14.52359578, "ECCENTRICITY": 0.00141996, "INCLINATION": 98.6566, "RA_OF_ASC_NODE": 336.2196, "ARG_OF_PERICENTER": 177.8976, "MEAN_ANOMALY": 182.2281, "EPHEMERIS_TYPE": 0, "CLASSIFICATION_TYPE": "U", "NORAD_CAT_ID": 25757, "ELEMENT_SET_NO": 999, "REV_AT_EPOCH": 40688, "BSTAR": 3.7650132e-05, "MEAN_MOTION_DOT": 1.05e-06, "MEAN_MOTION_DDOT": 0}, "tle": {"line1": "1 25757U 99029B   25351.55706930  .00000105  00000+0  37650-4 0  9996", "line2": "2 25757  98.6566 336.2196 0014199 177.8976 182.2281 14.52359578406886"}}, "geometry": {"type": "Point", "coordinates": [151.69848667811857, -41.55286618232828]}}, {"type": "Feature", "properties": {"norad_id": 25994, "name": "TERRA", "group": "resource", "lat": 10.49575640752498, "lon": -132.4203287918955, "alt_km": 691.7967696805281, "timestamp": "2025-12-20T16:47:35.947786+00:00", "meta": {"OBJECT_NAME": "TERRA", "OBJECT_ID": "1999-068A", "EPOCH": "2025-12-20T11:36:29.454336", "MEAN_MOTION": 14.60909855, "ECCENTRICITY": 0.000354, "INCLINATION": 97.9737, "RA_OF_ASC_NODE": 45.8836, "ARG_OF_PERICENTER": 79.2014, "MEAN_ANOMALY": 34.4687, "EPHEMERIS_TYPE": 0, "CLASSIFICATION_TYPE": "U", "NORAD_CAT_ID": 25994, "ELEMENT_SET_NO": 999, "REV_AT_EPOCH": 38351, "BSTAR": 7.6371e-05, "MEAN_MOTION_DOT": 3.29e-06, "MEAN_MOTION_DDOT": 0}, "tle": {"line1": "1 25994U 99068A   25354.48367424  .00000329  00000+0  76371-4 0  9999", "line2": "2 25994  97.9737  45.8836 0003540  79.2014  34.4687 14.60909855383511"}}, "geometry": {"type": "Point", "coordinates": [-132.4203287918955, 10.49575640752498]}}, {"type": "Feature", "properties": {"norad_id": 27004, "name": "MAROC-TUBSAT", "group": "resource", "lat": 78.90325846310799, "lon": 101.58936622044668, "alt_km": 1004.0017824127999, "timestamp": "2025-12-20T16:47:35.947797+00:00", "meta": {"OBJECT_NAME": "MAROC-TUBSAT", "OBJECT_ID": "2001-056D", "EPOCH": "2025-12-20T11:25:13.051200", "MEAN_MOTION": 13.70253266, "ECCENTRICITY": 0.0019179, "INCLINATION": 99.7915, "RA_OF_ASC_NODE": 163.0563, "ARG_OF_PERICENTER": 239.6047, "MEAN_ANOMALY": 181.4763, "EPHEMERIS_TYPE": 0, "CLASSIFICATION_TYPE": "U", "NORAD_CAT_ID": 27004, "ELEMENT_SET_NO": 999, "REV_AT_EPOCH": 20171, "BSTAR": 1.6498e-05, "MEAN_MOTION_DOT": -3.2e-07, "MEAN_MOTION_DDOT": 0}, "tle": {"line1": "1 27004U 01056D   25354.47584550 -.00000032  00000+0  16498-4 0  9999", "line2": "2 27004  99.7915 163.0563 0019179 239.6047 181.4763 13.70253266201713"}}, "geometry": {"type": "Point", "coordinates": [101.58936622044668, 78.90325846310799]}}, {"type": "Feature", "properties": {"norad_id": 27424, "name": "AQUA", "group": "resource", "lat": 68.97914681800452, "lon": -66.91888390699802, "alt_km": 679.8299133502924, "timestamp": "2025-12-20T16:47:35.947809+00:00", "meta": {"OBJECT_NAME": "AQUA", "OBJECT_ID": "2002-022A", "EPOCH": "2025-12-19T19:17:33.406368", "MEAN_MOTION": 14.61824191, "ECCENTRICITY": 0.00013487, "INCLINATION": 98.4046, "RA_OF_ASC_NODE": 314.798, "ARG_OF_PERICENTER": 112.3467, "MEAN_ANOMALY": 286.6091, "EPHEMERIS_TYPE": 0, "CLASSIFICATION_TYPE": "U", "NORAD_CAT_ID": 27424, "ELEMENT_SET_NO": 999, "REV_AT_EPOCH": 25706, "BSTAR": 0.00015509968, "MEAN_MOTION_DOT": 7.25e-06, "MEAN_MOTION_DDOT": 0}, "tle": {"line1": "1 27424U 02022A   25353.80385887  .00000725  00000+0  15510-3 0  9998", "line2": "2 27424  98.4046 314.7980 0001348 112.3467 286.6091 14.61824191257063"}}, "geometry": {"type": "Point", "coordinates": [-66.91888390699802, 68.97914681800452]}}, {"type": "Feature", "properties": {"norad_id": 28051, "name": "IRS-P6 (RESOURCESAT-1)", "group": "resource", "lat": -77.84643961985641, "lon": 76.87965694042826, "alt_km": 803.19254921824, "timestamp": "2025-12-20T16:47:35.947820+00:00", "meta": {"OBJECT_NAME": "IRS-P6 (RESOURCESAT-1)", "OBJECT_ID": "2003-046A", "EPOCH": "2025-12-20T12:46:51.070656", "MEAN_MOTION": 14.36079075, "ECCENTRICITY": 0.0064632, "INCLINATION": 98.217, "RA_OF_ASC_NODE": 34.5787, "ARG_OF_PERICENTER": 157.3521, "MEAN_ANOMALY": 337.1892, "EPHEMERIS_TYPE": 0, "CLASSIFICATION_TYPE": "U", "NORAD_CAT_ID": 28051, "ELEMENT_SET_NO": 999, "REV_AT_EPOCH": 15488, "BSTAR": 0.0001519, "MEAN_MOTION_DOT": 4.12e-06, "MEAN_MOTION_DDOT": 0}, "tle": {"line1": "1 28051U 03046A   25354.53253554  .00000412  00000+0  15190-3 0  9995", "line2": "2 28051  98.2170  34.5787 0064632 157.3521 337.1892 14.36079075154885"}}, "geometry": {"type": "Point", "coordinates": [76.87965694042826, -77.84643961985641]}}, {"type": "Feature", "properties": {"norad_id": 28220, "name": "SHIYAN-1 (SY-1)", "group": "resource", "lat": -82.06482476903388, "lon": 152.2565511555682, "alt_km": 484.8549113062045, "timestamp": "2025-12-20T16:47:35.947831+00:00", "meta": {"OBJECT_NAME": "SHIYAN-1 (SY-1)", "OBJECT_ID": "2004-012A", "EPOCH": "2025-12-20T10:54:15.637824", "MEAN_MOTION": 15.28330123, "ECCENTRICITY": 0.0005231, "INCLINATION": 97.893, "RA_OF_ASC_NODE": 56.4489, "ARG_OF_PERICENTER": 293.6442, "MEAN_ANOMALY": 66.4247, "EPHEMERIS_TYPE": 0, "CLASSIFICATION_TYPE": "U", "NORAD_CAT_ID": 28220, "ELEMENT_SET_NO": 999, "REV_AT_EPOCH": 18374, "BSTAR": 0.00035175, "MEAN_MOTION_DOT": 9.629e-05, "MEAN_MOTION_DDOT": 0}, "tle": {"line1": "1 28220U 04012A   25354.45434766  .00009629  00000+0  35175-3 0  9998", "line2": "2 28220  97.8930  56.4489 0005231 293.6442  66.4247 15.28330123183749"}}, "geometry": {"type": "Point", "coordinates": [152.2565511555682, -82.06482476903388]}}, {"type": "Feature", "properties": {"norad_id": 28376, "name": "AURA", "group": "resource", "lat": 2.5727842379536745, "lon": 125.34031712309464, "alt_km": 692.6228094935332, "timestamp": "2025-12-20T16:47:35.947842+00:00", "meta": {"OBJECT_NAME": "AURA", "OBJECT_ID": "2004-026A", "EPOCH": "2025-12-20T11:03:12.206016", "MEAN_MOTION": 14.60962954, "ECCENTRICITY": 0.000137, "INCLINATION": 98.3195, "RA_OF_ASC_NODE": 304.7233, "ARG_OF_PERICENTER": 92.933, "MEAN_ANOMALY": 267.2027, "EPHEMERIS_TYPE": 0, "CLASSIFICATION_TYPE": "U", "NORAD_CAT_ID": 28376, "ELEMENT_SET_NO": 999, "REV_AT_EPOCH": 14011, "BSTAR": 0.00016079, "MEAN_MOTION_DOT": 7.4e-06, "MEAN_MOTION_DDOT": 0}, "tle": {"line1": "1 28376U 04026A   25354.46055794  .00000740  00000+0  16079-3 0  9993", "line2": "2 28376  98.3195 304.7233 0001370  92.9330 267.2027 14.60962954140111"}}, "geometry": {"type": "Point", "coordinates": [125.34031712309464, 2.5727842379536745]}}]}